ONEWEB-0012             
1 44057U 19010A   24014.57256418 -.00000070  00000+0 -21729-3 0  9992
2 44057  87.9050  44.8620 0002463 113.0873 247.0518 13.16593141235161
ONEWEB-0010             
1 44058U 19010B   24014.59789884  .00000108  00000+0  24970-3 0  9994
2 44058  87.9044  44.8356 0002513  94.0964 266.0454 13.16594191235218
ONEWEB-0008             
1 44059U 19010C   24014.54723915  .00000078  00000+0  16935-3 0  9991
2 44059  87.9051  44.8466 0001538  90.6951 269.4356 13.16592924235325
ONEWEB-0007             
1 44060U 19010D   24014.56412928 -.00000048  00000+0 -16060-3 0  9992
2 44060  87.8986  75.2874 0002167 111.0123 249.1239 13.15549433235064
ONEWEB-0006             
1 44061U 19010E   24014.54986788  .00000118  00000+0  27860-3 0  9997
2 44061  87.8976  75.2799 0002132 102.5153 257.6216 13.15549891235113
ONEWEB-0011             
1 44062U 19010F   24014.61404955  .00000149  00000+0  36089-3 0  9994
2 44062  87.8978  75.2724 0002008  94.3277 265.8083 13.15548536235119
ONEWEB-0013             
1 45131U 20008A   24014.60855162 -.00000245  00000+0 -74771-3 0  9999
2 45131  87.8544 230.6316 0001272 126.8686 233.2557 13.09358777190302
ONEWEB-0017             
1 45132U 20008B   24014.55128905  .00000043  00000+0  86432-4 0  9994
2 45132  87.8893 211.9864 0001558  82.8765 277.2540 13.10365874192092
